OBJECT_NAME,OBJECT_ID,EPOCH,MEAN_MOTION,ECCENTRICITY,INCLINATION,RA_OF_ASC_NODE,ARG_OF_PERICENTER,MEAN_ANOMALY,EPHEMERIS_TYPE,CLASSIFICATION_TYPE,NORAD_CAT_ID,ELEMENT_SET_NO,REV_AT_EPOCH,BSTAR,MEAN_MOTION_DOT,MEAN_MOTION_DDOT
ONEWEB-0647,2023-043AK,2026-07-17T04:01:35.717664,13.15549779,.0002005,87.8985,253.2530,101.5516,258.5840,0,U,56079,999,16036,.13064E-4,.18E-6,0
ONEWEB-0651,2023-043AL,2026-07-17T03:54:45.740160,13.15548597,.0001838,87.8983,253.2475,93.3021,266.8319,0,U,56080,999,16156,.40341E-3,.165E-5,0
ONEWEB-0718,2023-043AM,2026-07-17T01:58:22.958688,13.15549648,.0002505,87.8988,253.2440,90.7403,269.4014,0,U,56081,999,16036,.2018E-3,.89E-6,0
ONEWEB-0561,2023-068A,2026-07-17T04:44:11.514336,13.20770434,.0001813,87.9187,268.4629,106.7356,253.3977,0,U,56710,999,15346,.11844E-3,.61E-6,0
ONEWEB-0668,2023-068B,2026-07-17T01:37:32.045664,13.16595327,.0002283,87.9080,222.8367,79.3434,280.7954,0,U,56711,999,15571,.17656E-3,.8E-6,0
ONEWEB-0676,2023-068C,2026-07-16T14:52:19.913088,13.16594469,.0001765,87.9083,222.9324,93.4616,266.6717,0,U,56712,999,15557,-.61324E-4,-.11E-6,0
ONEWEB-0677,2023-068D,2026-07-16T17:32:42.111744,13.20771997,.0001851,87.9185,268.5471,89.3701,270.7644,0,U,56713,999,15370,-.83311E-4,-.21E-6,0
ONEWEB-0678,2023-068E,2026-07-17T03:02:16.926720,13.15548226,.0002069,87.8990,253.2302,105.4247,254.7112,0,U,56714,999,15322,.36706E-3,.151E-5,0
ONEWEB-0679,2023-068F,2026-07-17T00:49:39.624096,13.16594072,.0001927,87.9077,222.8410,77.1175,283.0171,0,U,56715,999,15565,.61032E-5,.15E-6,0
ONEWEB-0680,2023-068G,2026-07-17T01:43:11.907840,13.21826211,.0002208,87.9239,238.0257,80.4641,279.6742,0,U,56716,999,15504,.1499E-3,.75E-6,0
ONEWEB-0681,2023-068H,2026-07-17T01:15:19.977120,13.21827801,.0001099,87.9236,238.0297,95.7358,264.3901,0,U,56717,999,15503,.19778E-3,.95E-6,0
ONEWEB-0682,2023-068J,2026-07-16T16:39:22.558176,13.15548016,.000216,87.8991,253.3166,82.8896,277.2480,0,U,56718,999,15333,.28953E-3,.122E-5,0
ONEWEB-0683,2023-068K,2026-07-16T15:24:04.183776,13.15548312,.0002235,87.8991,253.3276,91.6816,268.4571,0,U,56719,999,15329,-.34208E-3,-.116E-5,0
ONEWEB-0684,2023-068L,2026-07-17T02:32:36.361824,13.15549915,.00031,87.8989,253.2243,117.4994,242.6452,0,U,56720,999,15318,-.21223E-3,-.67E-6,0
ONEWEB-0686,2023-068M,2026-07-17T01:42:06.402816,13.16594317,.0002409,87.9071,222.8544,92.6953,267.4453,0,U,56721,999,15564,.17567E-3,.8E-6,0
ONEWEB-0694,2023-068N,2026-07-17T01:51:13.603392,13.16593815,.0002248,87.9091,222.8237,81.0984,279.0401,0,U,56722,999,15570,.81063E-4,.44E-6,0
ONEWEB-0696,2023-068P,2026-07-17T03:20:31.180128,13.15549973,.0002124,87.8982,253.2537,111.6432,248.4925,0,U,56723,999,15330,.50865E-3,.204E-5,0
ONEWEB-0703,2023-068Q,2026-07-17T03:34:13.141344,13.15548083,.0001821,87.8985,253.2331,124.0810,236.0493,0,U,56724,999,15319,.44083E-3,.179E-5,0
ONEWEB-0721,2023-068R,2026-07-17T02:25:17.649408,13.22471256,.0001749,86.6741,75.9661,79.5441,280.5890,0,U,56725,999,16189,.1448E-3,.75E-6,0
ONEWEB-0015,2024-188A,2026-07-16T21:54:09.052992,13.11417992,.0001468,87.8881,15.1729,75.9369,284.1922,0,U,61594,999,8835,-.13135E-2,-.453E-5,0
ONEWEB-0687,2024-188B,2026-07-16T20:18:04.292928,13.17650195,.0001925,87.9143,359.9745,78.4853,281.6495,0,U,61595,999,8980,-.22349E-4,.4E-7,0
ONEWEB-0688,2024-188C,2026-07-16T20:59:21.848352,13.17648596,.0001082,87.9142,359.9690,54.0843,306.0389,0,U,61596,999,8980,-.65545E-3,-.242E-5,0
ONEWEB-0689,2024-188D,2026-07-16T20:53:07.719072,13.11416739,.0002082,87.8897,15.1434,86.2692,273.8674,0,U,61597,999,8834,.15745E-2,.571E-5,0
ONEWEB-0690,2024-188E,2026-07-16T21:07:46.960032,13.11415201,.0001647,87.8893,15.1518,111.3840,248.7464,0,U,61598,999,8852,.78306E-3,.29E-5,0
ONEWEB-0691,2024-188F,2026-07-16T21:00:27.821664,13.11414883,.0001668,87.8904,15.0643,80.8229,279.3088,0,U,61599,999,8837,.12023E-2,.439E-5,0
ONEWEB-0692,2024-188G,2026-07-16T12:20:23.633088,13.11416821,.0002637,87.8882,15.2438,94.5294,265.6135,0,U,61600,999,8831,-.10761E-2,-.369E-5,0
ONEWEB-0693,2024-188H,2026-07-16T10:20:18.210048,13.17650197,.0001466,87.9138,0.0757,117.9202,242.2078,0,U,61601,999,8973,.1116E-3,.56E-6,0
ONEWEB-0695,2024-188J,2026-07-16T20:55:34.758912,13.11416303,.0002352,87.8883,15.1647,87.4777,272.6621,0,U,61602,999,8835,.1397E-2,.508E-5,0
ONEWEB-0697,2024-188K,2026-07-16T12:32:36.633408,13.11417058,.0002568,87.8885,15.2247,96.8627,263.2793,0,U,61603,999,8829,-.15914E-2,-.551E-5,0
ONEWEB-0698,2024-188L,2026-07-16T12:00:53.210304,13.11415203,.0002541,87.8882,15.2426,117.0548,243.0840,0,U,61604,999,8831,.41459E-3,.16E-5,0
ONEWEB-0699,2024-188M,2026-07-16T12:52:37.079328,13.10371203,.0002457,87.8815,30.4166,97.3257,262.8149,0,U,61605,999,8715,.13669E-2,.49E-5,0
