[
  {
    "name": "ONEWEB-0647",
    "noradId": "56079",
    "line1": "1 56079U 23043AK  26198.16777451  .00000018  00000+0  13064-4 0  9999",
    "line2": "2 56079  87.8985 253.2530 0002005 101.5516 258.5840 13.15549779160369"
  },
  {
    "name": "ONEWEB-0651",
    "noradId": "56080",
    "line1": "1 56080U 23043AL  26198.16302940  .00000165  00000+0  40341-3 0  9998",
    "line2": "2 56080  87.8983 253.2475 0001838  93.3021 266.8319 13.15548597161562"
  },
  {
    "name": "ONEWEB-0718",
    "noradId": "56081",
    "line1": "1 56081U 23043AM  26198.08221017  .00000089  00000+0  20180-3 0  9999",
    "line2": "2 56081  87.8988 253.2440 0002505  90.7403 269.4014 13.15549648160363"
  },
  {
    "name": "ONEWEB-0561",
    "noradId": "56710",
    "line1": "1 56710U 23068A   26198.19735549  .00000061  00000+0  11844-3 0  9994",
    "line2": "2 56710  87.9187 268.4629 0001813 106.7356 253.3977 13.20770434153465"
  },
  {
    "name": "ONEWEB-0668",
    "noradId": "56711",
    "line1": "1 56711U 23068B   26198.06773201  .00000080  00000+0  17656-3 0  9996",
    "line2": "2 56711  87.9080 222.8367 0002283  79.3434 280.7954 13.16595327155715"
  },
  {
    "name": "ONEWEB-0676",
    "noradId": "56712",
    "line1": "1 56712U 23068C   26197.61967492 -.00000011  00000+0 -61324-4 0  9992",
    "line2": "2 56712  87.9083 222.9324 0001765  93.4616 266.6717 13.16594469155576"
  },
  {
    "name": "ONEWEB-0677",
    "noradId": "56713",
    "line1": "1 56713U 23068D   26197.73104296 -.00000021  00000+0 -83311-4 0  9992",
    "line2": "2 56713  87.9185 268.5471 0001851  89.3701 270.7644 13.20771997153700"
  },
  {
    "name": "ONEWEB-0678",
    "noradId": "56714",
    "line1": "1 56714U 23068E   26198.12658480  .00000151  00000+0  36706-3 0  9993",
    "line2": "2 56714  87.8990 253.2302 0002069 105.4247 254.7112 13.15548226153225"
  },
  {
    "name": "ONEWEB-0679",
    "noradId": "56715",
    "line1": "1 56715U 23068F   26198.03448639  .00000015  00000+0  61032-5 0  9998",
    "line2": "2 56715  87.9077 222.8410 0001927  77.1175 283.0171 13.16594072155652"
  },
  {
    "name": "ONEWEB-0680",
    "noradId": "56716",
    "line1": "1 56716U 23068G   26198.07166560  .00000075  00000+0  14990-3 0  9998",
    "line2": "2 56716  87.9239 238.0257 0002208  80.4641 279.6742 13.21826211155046"
  },
  {
    "name": "ONEWEB-0681",
    "noradId": "56717",
    "line1": "1 56717U 23068H   26198.05231455  .00000095  00000+0  19778-3 0  9994",
    "line2": "2 56717  87.9236 238.0297 0001099  95.7358 264.3901 13.21827801155032"
  },
  {
    "name": "ONEWEB-0682",
    "noradId": "56718",
    "line1": "1 56718U 23068J   26197.69401109  .00000122  00000+0  28953-3 0  9995",
    "line2": "2 56718  87.8991 253.3166 0002160  82.8896 277.2480 13.15548016153336"
  },
  {
    "name": "ONEWEB-0683",
    "noradId": "56719",
    "line1": "1 56719U 23068K   26197.64171509 -.00000116  00000+0 -34208-3 0  9994",
    "line2": "2 56719  87.8991 253.3276 0002235  91.6816 268.4571 13.15548312153299"
  },
  {
    "name": "ONEWEB-0684",
    "noradId": "56720",
    "line1": "1 56720U 23068L   26198.10597641 -.00000067  00000+0 -21223-3 0  9995",
    "line2": "2 56720  87.8989 253.2243 0003100 117.4994 242.6452 13.15549915153187"
  },
  {
    "name": "ONEWEB-0686",
    "noradId": "56721",
    "line1": "1 56721U 23068M   26198.07090744  .00000080  00000+0  17567-3 0  9993",
    "line2": "2 56721  87.9071 222.8544 0002409  92.6953 267.4453 13.16594317155643"
  },
  {
    "name": "ONEWEB-0694",
    "noradId": "56722",
    "line1": "1 56722U 23068N   26198.07724078  .00000044  00000+0  81063-4 0  9991",
    "line2": "2 56722  87.9091 222.8237 0002248  81.0984 279.0401 13.16593815155703"
  },
  {
    "name": "ONEWEB-0696",
    "noradId": "56723",
    "line1": "1 56723U 23068P   26198.13924977  .00000204  00000+0  50865-3 0  9992",
    "line2": "2 56723  87.8982 253.2537 0002124 111.6432 248.4925 13.15549973153304"
  },
  {
    "name": "ONEWEB-0703",
    "noradId": "56724",
    "line1": "1 56724U 23068Q   26198.14876321  .00000179  00000+0  44083-3 0  9999",
    "line2": "2 56724  87.8985 253.2331 0001821 124.0810 236.0493 13.15548083153192"
  },
  {
    "name": "ONEWEB-0721",
    "noradId": "56725",
    "line1": "1 56725U 23068R   26198.10089872  .00000075  00000+0  14480-3 0  9996",
    "line2": "2 56725  86.6741  75.9661 0001749  79.5441 280.5890 13.22471256161894"
  },
  {
    "name": "ONEWEB-0015",
    "noradId": "61594",
    "line1": "1 61594U 24188A   26197.91260478 -.00000453  00000+0 -13135-2 0  9998",
    "line2": "2 61594  87.8881  15.1729 0001468  75.9369 284.1922 13.11417992 88350"
  },
  {
    "name": "ONEWEB-0687",
    "noradId": "61595",
    "line1": "1 61595U 24188B   26197.84588302  .00000004  00000+0 -22349-4 0  9990",
    "line2": "2 61595  87.9143 359.9745 0001925  78.4853 281.6495 13.17650195 89802"
  },
  {
    "name": "ONEWEB-0688",
    "noradId": "61596",
    "line1": "1 61596U 24188C   26197.87455843 -.00000242  00000+0 -65545-3 0  9996",
    "line2": "2 61596  87.9142 359.9690 0001082  54.0843 306.0389 13.17648596 89800"
  },
  {
    "name": "ONEWEB-0689",
    "noradId": "61597",
    "line1": "1 61597U 24188D   26197.87022823  .00000571  00000+0  15745-2 0  9994",
    "line2": "2 61597  87.8897  15.1434 0002082  86.2692 273.8674 13.11416739 88346"
  },
  {
    "name": "ONEWEB-0690",
    "noradId": "61598",
    "line1": "1 61598U 24188E   26197.88040463  .00000290  00000+0  78306-3 0  9997",
    "line2": "2 61598  87.8893  15.1518 0001647 111.3840 248.7464 13.11415201 88528"
  },
  {
    "name": "ONEWEB-0691",
    "noradId": "61599",
    "line1": "1 61599U 24188F   26197.87532201  .00000439  00000+0  12023-2 0  9991",
    "line2": "2 61599  87.8904  15.0643 0001668  80.8229 279.3088 13.11414883 88374"
  },
  {
    "name": "ONEWEB-0692",
    "noradId": "61600",
    "line1": "1 61600U 24188G   26197.51416242 -.00000369  00000+0 -10761-2 0  9992",
    "line2": "2 61600  87.8882  15.2438 0002637  94.5294 265.6135 13.11416821 88316"
  },
  {
    "name": "ONEWEB-0693",
    "noradId": "61601",
    "line1": "1 61601U 24188H   26197.43076632  .00000056  00000+0  11160-3 0  9995",
    "line2": "2 61601  87.9138   0.0757 0001466 117.9202 242.2078 13.17650197 89732"
  },
  {
    "name": "ONEWEB-0695",
    "noradId": "61602",
    "line1": "1 61602U 24188J   26197.87193008  .00000508  00000+0  13970-2 0  9993",
    "line2": "2 61602  87.8883  15.1647 0002352  87.4777 272.6621 13.11416303 88358"
  },
  {
    "name": "ONEWEB-0697",
    "noradId": "61603",
    "line1": "1 61603U 24188K   26197.52264622 -.00000551  00000+0 -15914-2 0  9997",
    "line2": "2 61603  87.8885  15.2247 0002568  96.8627 263.2793 13.11417058 88292"
  },
  {
    "name": "ONEWEB-0698",
    "noradId": "61604",
    "line1": "1 61604U 24188L   26197.50061586  .00000160  00000+0  41459-3 0  9998",
    "line2": "2 61604  87.8882  15.2426 0002541 117.0548 243.0840 13.11415203 88310"
  },
  {
    "name": "ONEWEB-0699",
    "noradId": "61605",
    "line1": "1 61605U 24188M   26197.53654027  .00000490  00000+0  13669-2 0  9997",
    "line2": "2 61605  87.8815  30.4166 0002457  97.3257 262.8149 13.10371203 87152"
  }
]